0 FENGYUN 1C DEB
1 29858U 99025FC  13282.66521881  .00000689  00000-0  73538-3 0  8081
2 29858 099.1690 173.6270 0215749 213.9077 201.6696 13.67700851336113
0 FENGYUN 1C DEB
1 29858U 99025FC  13285.66456605  .00000791  00000-0  83837-3 0  8105
2 29858 099.1690 176.4765 0215713 206.0079 209.7270 13.67704816336526
0 FENGYUN 1C DEB
1 29858U 99025FC  13286.68915991  .00000855  00000-0  90272-3 0  8119
2 29858 099.1690 177.4500 0215732 203.3230 214.5755 13.67706196336664
0 FENGYUN 1C DEB
1 29858U 99025FC  13287.93412189  .00001068  00000-0  11168-2 0  8123
2 29858 099.1689 178.6326 0215735 200.0467 224.4834 13.67709215336832
0 FENGYUN 1C DEB
1 29858U 99025FC  13289.19816037  .00000947  00000-0  99487-3 0  8130
2 29858 099.1689 179.8337 0215752 196.7207 328.3322 13.67712247337004
0 FENGYUN 1C DEB
1 29858U 99025FC  13290.50703998  .00000947  00000-0  99467-3 0  8147
2 29858 099.1688 181.0773 0215772 193.2810 292.9793 13.67714476337189
0 FENGYUN 1C DEB
1 29858U 99025FC  13291.53056892  .00000945  00000-0  99256-3 0  8150
2 29858 099.1685 182.0497 0215805 190.5838 292.6359 13.67716122337328
0 FENGYUN 1C DEB
1 29858U 99025FC  13292.68781876  .00001036  00000-0  10833-2 0  8160
2 29858 099.1683 183.1491 0215843 187.5398 230.7104 13.67717925337481
0 FENGYUN 1C DEB
1 29858U 99025FC  13294.17043051  .00001018  00000-0  10652-2 0  8172
2 29858 099.1684 184.5575 0215884 183.6310 330.8252 13.67721634337686
0 FENGYUN 1C DEB
1 29858U 99025FC  13295.18945840  .00001073  00000-0  11203-2 0  8186
2 29858 099.1684 185.5255 0215922 180.9528 308.3385 13.67723692337825
